OBJECT_NAME,OBJECT_ID,EPOCH,MEAN_MOTION,ECCENTRICITY,INCLINATION,RA_OF_ASC_NODE,ARG_OF_PERICENTER,MEAN_ANOMALY,EPHEMERIS_TYPE,CLASSIFICATION_TYPE,NORAD_CAT_ID,ELEMENT_SET_NO,REV_AT_EPOCH,BSTAR,MEAN_MOTION_DOT,MEAN_MOTION_DDOT
STARLINK-2220,2021-041T,2026-06-22T14:05:00.413376,16.12145780,.00091835,53.1189,9.1574,342.1570,17.9142,0,U,48570,999,28117,.84710008E-3,.94468E-2,.54672676E-3
STARLINK-2221,2021-041U,2026-06-22T13:43:04.561248,15.31707372,.00011327,53.1617,11.6154,93.6268,266.4863,0,U,48571,999,28116,.11221182E-3,.3119E-4,0
STARLINK-2222,2021-041V,2026-06-21T20:52:24.137184,15.31704584,.00010851,53.1590,24.2496,100.3013,259.8110,0,U,48572,999,28091,-.29081247E-4,-.1267E-4,0
STARLINK-2224,2021-041W,2026-06-22T12:30:43.284384,15.31717321,.00013142,53.1614,359.6641,77.5091,282.6058,0,U,48573,999,28132,.10957814E-3,.3038E-4,0
STARLINK-2225,2021-041X,2026-06-22T17:10:20.127072,15.31709153,.00008753,53.1607,332.3655,73.7166,286.3932,0,U,48574,999,28172,.1089545E-3,.3018E-4,0
STARLINK-2227,2021-041Y,2026-06-22T16:39:05.448384,15.31711685,.00011025,53.1591,319.7121,76.0177,284.0947,0,U,48575,999,28191,.34496857E-3,.10358E-3,0
STARLINK-2228,2021-041Z,2026-06-22T16:56:55.235904,15.31709579,.00011006,53.1611,332.5019,77.0497,283.0627,0,U,48576,999,28173,.42995078E-4,.97E-5,0
STARLINK-2231,2021-041AA,2026-06-21T22:45:07.037568,15.31703092,.00011262,53.1606,1.8768,91.9935,268.1196,0,U,48577,999,28124,.39533137E-4,.862E-5,0
STARLINK-2232,2021-041AB,2026-06-22T19:46:49.798272,15.31712935,.00010898,53.1602,357.6258,81.7253,278.3872,0,U,48578,999,28138,.33644195E-3,.10093E-3,0
STARLINK-2234,2021-041AD,2026-06-22T11:14:37.942080,15.31708676,.00007482,53.1621,333.5529,86.1864,273.9223,0,U,48580,999,28169,.2140841E-5,-.298E-5,0
STARLINK-2235,2021-041AE,2026-06-22T17:31:59.364480,15.31711211,.00011293,53.1600,335.1735,75.4908,284.6219,0,U,48581,999,28168,.17706716E-3,.5135E-4,0
STARLINK-2236,2021-041AF,2026-06-22T17:52:23.458944,15.39210636,.00011458,53.0546,335.6366,48.9575,311.1527,0,U,48582,999,28166,.34651785E-2,.138887E-2,0
STARLINK-2237,2021-041AG,2026-06-22T06:36:19.586016,15.31702810,.00012582,53.1580,22.4295,95.9125,264.2020,0,U,48583,999,28097,.10435987E-3,.2875E-4,0
STARLINK-2241,2021-041AK,2026-06-22T07:29:59.236224,15.31718987,.00011117,53.1612,22.1942,66.7300,293.3819,0,U,48586,999,28097,.11689768E-3,.3266E-4,0
STARLINK-2245,2021-041AN,2026-06-22T12:23:52.862784,15.31712087,.00012399,53.1605,359.1017,87.6782,272.4361,0,U,48589,999,28133,-.28541316E-4,-.1251E-4,0
STARLINK-2250,2021-041AS,2026-06-21T20:22:52.226112,15.31701002,.00012498,53.1601,15.3293,95.3286,264.7858,0,U,48593,999,28104,.82440801E-4,.2194E-4,0
STARLINK-2251,2021-041AT,2026-06-22T18:05:48.020064,15.29374679,.00011036,53.1616,346.1485,80.3857,279.7268,0,U,48594,999,28153,.7200968E-5,-.148E-5,0
STARLINK-2252,2021-041AU,2026-06-21T21:05:50.372736,15.31701206,.00012969,53.1596,24.1919,99.7299,260.3849,0,U,48595,999,28218,.46276534E-4,.1071E-4,0
STARLINK-2253,2021-041AV,2026-06-21T19:35:49.204608,15.31693985,.00015731,53.1624,15.1195,100.2200,259.8979,0,U,48596,999,28150,-.20649336E-4,-.1006E-4,0
STARLINK-2255,2021-041AW,2026-06-22T12:56:04.966368,15.31703653,.00014039,53.1619,11.7253,103.2572,256.8587,0,U,48597,999,28242,-.11035641E-4,-.708E-5,0
STARLINK-2713,2021-041BB,2026-06-21T21:07:09.984288,15.31695884,.00013975,53.1618,349.1095,101.6614,258.4544,0,U,48602,999,28267,-.76306056E-4,-.2732E-4,0
STARLINK-2714,2021-041BC,2026-06-22T12:36:26.101440,15.29368116,.00013493,53.1607,347.2031,112.0866,248.0278,0,U,48603,999,28275,-.75716509E-4,-.2541E-4,0
STARLINK-2757,2021-041BD,2026-06-22T12:58:52.319712,15.31707307,.00012673,53.1623,21.1312,91.3435,268.7711,0,U,48604,999,28228,.12736881E-4,.3E-6,0
TYVAK-0130,2021-041BF,2026-06-22T12:59:04.638624,15.27620182,.00100695,52.9942,1.2214,179.8989,180.2012,0,U,48606,999,28120,.23138263E-3,.5991E-4,0
SBIRS GEO-5 (USA 315),2021-042A,2026-06-22T20:09:06.594624,1.00271464,.00016136,5.0955,329.1811,126.7631,211.1513,0,U,48618,999,1882,0,-.267E-5,0
HAIYANG-2D,2021-043A,2026-06-22T20:37:13.856160,13.83370917,.00114859,65.9994,290.5781,268.0971,91.8782,0,U,48621,999,25733,-.46447425E-4,-.132E-5,0
STARLINK-2739,2021-044B,2026-06-22T20:16:26.859648,15.31712425,.00008051,53.1588,344.6331,79.6136,280.4956,0,U,48639,999,27993,.20953625E-3,.6145E-4,0
STARLINK-2736,2021-044C,2026-06-22T17:48:47.501280,15.31708475,.00012495,53.1610,345.0812,75.3979,284.7161,0,U,48640,999,27991,.11449524E-3,.319E-4,0
STARLINK-2754,2021-044D,2026-06-22T12:06:04.049856,15.31714874,.00012594,53.1627,346.4639,92.8272,267.2873,0,U,48641,999,27988,.25098472E-4,.414E-5,0
STARLINK-2646,2021-044E,2026-06-22T12:06:32.027040,15.31705797,.00011382,53.1601,346.3090,81.4672,278.6459,0,U,48642,999,27988,.10345882E-3,.2847E-4,0
