STARLINK-2220           
1 48570U 21041T   26173.58681034  .00944680  54673-3  84710-3 0  9998
2 48570  53.1189   9.1574 0009183 342.1570  17.9142 16.12145780281170
STARLINK-2221           
1 48571U 21041U   26173.57158057  .00003119  00000+0  11221-3 0  9993
2 48571  53.1617  11.6154 0001132  93.6268 266.4863 15.31707372281168
STARLINK-2222           
1 48572U 21041V   26172.86972381 -.00001267  00000+0 -29081-4 0  9997
2 48572  53.1590  24.2496 0001085 100.3013 259.8110 15.31704584280914
STARLINK-2224           
1 48573U 21041W   26173.52133431  .00003038  00000+0  10958-3 0  9995
2 48573  53.1614 359.6641 0001314  77.5091 282.6058 15.31717321281329
STARLINK-2225           
1 48574U 21041X   26173.71551073  .00003018  00000+0  10895-3 0  9991
2 48574  53.1607 332.3655 0000875  73.7166 286.3932 15.31709153281727
STARLINK-2227           
1 48575U 21041Y   26173.69381306  .00010358  00000+0  34497-3 0  9998
2 48575  53.1591 319.7121 0001102  76.0177 284.0947 15.31711685281914
STARLINK-2228           
1 48576U 21041Z   26173.70619486  .00000970  00000+0  42995-4 0  9996
2 48576  53.1611 332.5019 0001100  77.0497 283.0627 15.31709579281734
STARLINK-2231           
1 48577U 21041AA  26172.94799812  .00000862  00000+0  39533-4 0  9998
2 48577  53.1606   1.8768 0001126  91.9935 268.1196 15.31703092281241
STARLINK-2232           
1 48578U 21041AB  26173.82418748  .00010093  00000+0  33644-3 0  9996
2 48578  53.1602 357.6258 0001089  81.7253 278.3872 15.31712935281387
STARLINK-2234           
1 48580U 21041AD  26173.46849470 -.00000298  00000+0  21408-5 0  9993
2 48580  53.1621 333.5529 0000748  86.1864 273.9223 15.31708676281695
STARLINK-2235           
1 48581U 21041AE  26173.73054820  .00005135  00000+0  17707-3 0  9990
2 48581  53.1600 335.1735 0001129  75.4908 284.6219 15.31711211281686
STARLINK-2236           
1 48582U 21041AF  26173.74471596  .00138887  00000+0  34652-2 0  9993
2 48582  53.0546 335.6366 0001145  48.9575 311.1527 15.39210636281662
STARLINK-2237           
1 48583U 21041AG  26173.27522669  .00002875  00000+0  10436-3 0  9992
2 48583  53.1580  22.4295 0001258  95.9125 264.2020 15.31702810280973
STARLINK-2241           
1 48586U 21041AK  26173.31249116  .00003266  00000+0  11690-3 0  9991
2 48586  53.1612  22.1942 0001111  66.7300 293.3819 15.31718987280978
STARLINK-2245           
1 48589U 21041AN  26173.51658406 -.00001251  00000+0 -28541-4 0  9990
2 48589  53.1605 359.1017 0001239  87.6782 272.4361 15.31712087281332
STARLINK-2250           
1 48593U 21041AS  26172.84921558  .00002194  00000+0  82441-4 0  9995
2 48593  53.1601  15.3293 0001249  95.3286 264.7858 15.31701002281044
STARLINK-2251           
1 48594U 21041AT  26173.75402801 -.00000148  00000+0  72010-5 0  9992
2 48594  53.1616 346.1485 0001103  80.3857 279.7268 15.29374679281534
STARLINK-2252           
1 48595U 21041AU  26172.87905524  .00001071  00000+0  46277-4 0  9995
2 48595  53.1596  24.1919 0001296  99.7299 260.3849 15.31701206282180
STARLINK-2253           
1 48596U 21041AV  26172.81654172 -.00001006  00000+0 -20649-4 0  9995
2 48596  53.1624  15.1195 0001573 100.2200 259.8979 15.31693985281503
STARLINK-2255           
1 48597U 21041AW  26173.53894637 -.00000708  00000+0 -11036-4 0  9996
2 48597  53.1619  11.7253 0001403 103.2572 256.8587 15.31703653282420
STARLINK-2713           
1 48602U 21041BB  26172.87997667 -.00002732  00000+0 -76306-4 0  9996
2 48602  53.1618 349.1095 0001397 101.6614 258.4544 15.31695884282673
STARLINK-2714           
1 48603U 21041BC  26173.52530210 -.00002541  00000+0 -75717-4 0  9990
2 48603  53.1607 347.2031 0001349 112.0866 248.0278 15.29368116282753
STARLINK-2757           
1 48604U 21041BD  26173.54088333  .00000030  00000+0  12737-4 0  9999
2 48604  53.1623  21.1312 0001267  91.3435 268.7711 15.31707307282283
TYVAK-0130              
1 48606U 21041BF  26173.54102591  .00005991  00000+0  23138-3 0  9991
2 48606  52.9942   1.2214 0010069 179.8989 180.2012 15.27620182281205
SBIRS GEO-5 (USA 315)   
1 48618U 21042A   26173.83965966 -.00000267  00000+0  00000+0 0  9991
2 48618   5.0955 329.1811 0001613 126.7631 211.1513  1.00271464 18823
HAIYANG-2D              
1 48621U 21043A   26173.85918815 -.00000132  00000+0 -46447-4 0  9991
2 48621  65.9994 290.5781 0011485 268.0971  91.8782 13.83370917257336
STARLINK-2739           
1 48639U 21044B   26173.84475532  .00006145  00000+0  20954-3 0  9996
2 48639  53.1588 344.6331 0000805  79.6136 280.4956 15.31712425279936
STARLINK-2736           
1 48640U 21044C   26173.74221645  .00003190  00000+0  11450-3 0  9999
2 48640  53.1610 345.0812 0001249  75.3979 284.7161 15.31708475279917
STARLINK-2754           
1 48641U 21044D   26173.50421354  .00000414  00000+0  25098-4 0  9993
2 48641  53.1627 346.4639 0001259  92.8272 267.2873 15.31714874279881
STARLINK-2646           
1 48642U 21044E   26173.50453735  .00002847  00000+0  10346-3 0  9993
2 48642  53.1601 346.3090 0001138  81.4672 278.6459 15.31705797279888
